OBJECT_NAME,OBJECT_ID,EPOCH,MEAN_MOTION,ECCENTRICITY,INCLINATION,RA_OF_ASC_NODE,ARG_OF_PERICENTER,MEAN_ANOMALY,EPHEMERIS_TYPE,CLASSIFICATION_TYPE,NORAD_CAT_ID,ELEMENT_SET_NO,REV_AT_EPOCH,BSTAR,MEAN_MOTION_DOT,MEAN_MOTION_DDOT
STARLINK-38093,2026-159F,2026-07-22T14:00:03.000384,15.80800185,.00011132,97.2860,42.6884,86.1633,170.2948,0,U,69980,999,304,.14378986E-3,.27467E-3,0
STARLINK-38050,2026-159G,2026-07-22T14:00:03.000384,15.77965814,.00019149,97.2855,42.6893,84.0332,173.8599,0,U,69981,999,304,-.13674316E-1,-.1995455E-1,0
STARLINK-38065,2026-159H,2026-07-22T14:00:03.000384,15.80844778,.00011216,97.2854,42.6915,82.7442,182.2518,0,U,69982,999,304,-.5069109E-3,-.96301E-3,0
STARLINK-38077,2026-159J,2026-07-22T14:00:03.000384,15.80788176,.00012197,97.2858,42.6950,90.1540,179.1266,0,U,69983,999,304,.29464421E-3,.56591E-3,0
STARLINK-38068,2026-159K,2026-07-22T14:00:03.000384,15.80790169,.00011063,97.2857,42.6957,82.4249,191.1303,0,U,69984,999,304,.24756897E-3,.47481E-3,0
STARLINK-38089,2026-159L,2026-07-22T14:00:03.000384,15.80792416,.0001356,97.2856,42.6977,87.8247,190.0032,0,U,69985,999,304,.23578205E-3,.45207E-3,0
STARLINK-38073,2026-159M,2026-07-22T14:00:03.000384,15.80806764,.00013879,97.2856,42.7008,50.0573,232.0440,0,U,69986,999,304,.69258743E-4,.13139E-3,0
STARLINK-38099,2026-159N,2026-07-22T14:00:03.000384,15.81194053,.00012137,97.2853,42.7003,92.6009,193.7032,0,U,69987,999,304,-.66913101E-2,-.1164922E-1,0
STARLINK-38064,2026-159P,2026-07-22T14:00:03.000384,15.80822472,.00012729,97.2853,42.7042,89.8942,205.0213,0,U,69988,999,304,-.6477584E-4,-.12535E-3,0
STARLINK-38080,2026-159Q,2026-07-22T14:00:03.000384,15.80798591,.0001253,97.2851,42.7036,83.8631,206.7830,0,U,69989,999,304,.17052958E-3,.32618E-3,0
STARLINK-38070,2026-159R,2026-07-22T14:00:03.000384,15.80819433,.00014252,97.2850,42.7079,84.1441,215.0424,0,U,69990,999,304,-.11939819E-4,-.2429E-4,0
STARLINK-38042,2026-159S,2026-07-22T14:00:03.000384,15.80826814,.00013497,97.2848,42.7089,98.6686,204.7942,0,U,69991,999,304,-.13723674E-3,-.26363E-3,0
STARLINK-38071,2026-159T,2026-07-22T14:00:03.000384,15.80794699,.00012002,97.2850,42.7113,89.6325,218.1120,0,U,69992,999,304,.20932976E-3,.401E-3,0
STARLINK-38082,2026-159U,2026-07-22T14:00:03.000384,15.80800793,.00009803,97.2850,42.7125,87.8575,224.1572,0,U,69993,999,304,.2276128E-3,.43644E-3,0
STARLINK-38090,2026-159V,2026-07-22T14:00:03.000384,15.80779231,.00012016,97.2851,42.7145,97.0000,219.2951,0,U,69994,999,304,.41050956E-3,.79072E-3,0
STARLINK-38084,2026-159W,2026-07-22T14:00:03.000384,15.79551251,.00013916,97.2849,42.7159,73.8901,246.0502,0,U,69995,999,304,-.14371425E-1,-.2265526E-1,0
STARLINK-38085,2026-159X,2026-07-22T14:00:03.000384,15.80803158,.0001243,97.2852,42.7183,87.0264,237.8071,0,U,69996,999,304,.12795762E-3,.24422E-3,0
STARLINK-38091,2026-159Y,2026-07-22T14:00:03.000384,15.80816100,.00012789,97.2849,42.7207,88.5532,240.5474,0,U,69997,999,304,.76555366E-4,.14546E-3,0
STARLINK-38086,2026-159Z,2026-07-22T14:00:03.000384,15.80818502,.00014331,97.2847,42.7225,91.6321,241.7421,0,U,69998,999,304,.56332051E-4,.10663E-3,0
SARAMAGO,2026-067CY,2026-07-22T12:58:11.557920,15.20554028,.00059067,97.4594,161.6520,234.4903,125.5782,0,U,100000,999,1707,.40346799E-3,.8769E-4,0
STARLINK-38128,2026-160A,2026-07-22T10:34:54.134112,15.78667026,.0005372,70.0031,5.1245,268.5646,91.4939,0,U,100001,999,253,.14283647E-2,.257745E-2,0
STARLINK-37711,2026-160B,2026-07-22T01:26:20.955264,15.79941147,.00092403,70.0028,6.2044,303.8975,56.1346,0,U,100002,999,247,.13666839E-2,.261733E-2,0
STARLINK-38123,2026-160C,2026-07-22T10:31:40.862496,15.81847297,.00182701,70.0030,5.1163,242.9615,116.9723,0,U,100003,999,253,.5044569E-2,.1151386E-1,0
STARLINK-38107,2026-160D,2026-07-22T12:02:54.361248,15.78940770,.00049902,70.0006,4.9338,238.9186,121.1525,0,U,100004,999,254,.17185378E-2,.316089E-2,0
STARLINK-38122,2026-160E,2026-07-22T01:23:11.789376,15.80278677,.00112566,70.0010,6.1948,241.6371,118.3696,0,U,100005,999,247,.61452259E-3,.117595E-2,0
STARLINK-38117,2026-160F,2026-07-22T01:22:15.811680,15.81731320,.00129142,70.0029,6.1922,319.7866,40.2379,0,U,100006,999,247,.13015427E-2,.271566E-2,0
STARLINK-38054,2026-160G,2026-07-22T11:59:39.186240,15.78910988,.00057688,70.0004,4.9256,286.9959,73.0609,0,U,100007,999,254,-.45494139E-2,-.741861E-2,0
STARLINK-38124,2026-160H,2026-07-22T11:58:34.504608,15.79153386,.0005774,70.0035,4.9248,295.9363,64.1242,0,U,100008,999,254,-.51334273E-2,-.837126E-2,0
STARLINK-38119,2026-160J,2026-07-22T01:19:14.247264,15.81232389,.00115893,70.0025,6.1837,239.1934,120.8128,0,U,100009,999,247,.12761036E-2,.259565E-2,0
STARLINK-38045,2026-160K,2026-07-22T01:18:16.210656,15.81517346,.00125508,70.0033,6.1809,239.9071,120.0887,0,U,100010,999,247,.5970509E-3,.121117E-2,0
