{"epoch":1784762836,"count":18316,"objects":[{"id":"69980","name":"STARLINK-38093","type":"PAYLOAD","l1":"1 69980U 26159F   26203.58336806  .00027467  00000-0  14379-3 0  9990","l2":"2 69980  97.2860  42.6884 0001113  86.1633 170.2948 15.80800185  3045"},{"id":"69981","name":"STARLINK-38050","type":"PAYLOAD","l1":"1 69981U 26159G   26203.58336806 -.01995455  00000-0 -13674-1 0  9990","l2":"2 69981  97.2855  42.6893 0001915  84.0332 173.8599 15.77965814  3041"},{"id":"69982","name":"STARLINK-38065","type":"PAYLOAD","l1":"1 69982U 26159H   26203.58336806 -.00096301  00000-0 -50691-3 0  9994","l2":"2 69982  97.2854  42.6915 0001122  82.7442 182.2518 15.80844778  3047"},{"id":"69983","name":"STARLINK-38077","type":"PAYLOAD","l1":"1 69983U 26159J   26203.58336806  .00056591  00000-0  29464-3 0  9994","l2":"2 69983  97.2858  42.6950 0001220  90.1540 179.1266 15.80788176  3046"},{"id":"69984","name":"STARLINK-38068","type":"PAYLOAD","l1":"1 69984U 26159K   26203.58336806  .00047481  00000-0  24757-3 0  9993","l2":"2 69984  97.2857  42.6957 0001106  82.4249 191.1303 15.80790169  3047"},{"id":"69985","name":"STARLINK-38089","type":"PAYLOAD","l1":"1 69985U 26159L   26203.58336806  .00045207  00000-0  23578-3 0  9998","l2":"2 69985  97.2856  42.6977 0001356  87.8247 190.0032 15.80792416  3047"},{"id":"69986","name":"STARLINK-38073","type":"PAYLOAD","l1":"1 69986U 26159M   26203.58336806  .00013139  00000-0  69259-4 0  9995","l2":"2 69986  97.2856  42.7008 0001388  50.0573 232.0440 15.80806764  3045"},{"id":"69987","name":"STARLINK-38099","type":"PAYLOAD","l1":"1 69987U 26159N   26203.58336806 -.01164922  00000-0 -66913-2 0  9998","l2":"2 69987  97.2853  42.7003 0001214  92.6009 193.7032 15.81194053  3044"},{"id":"69988","name":"STARLINK-38064","type":"PAYLOAD","l1":"1 69988U 26159P   26203.58336806 -.00012535  00000-0 -64776-4 0  9997","l2":"2 69988  97.2853  42.7042 0001273  89.8942 205.0213 15.80822472  3047"},{"id":"69989","name":"STARLINK-38080","type":"PAYLOAD","l1":"1 69989U 26159Q   26203.58336806  .00032618  00000-0  17053-3 0  9995","l2":"2 69989  97.2851  42.7036 0001253  83.8631 206.7830 15.80798591  3043"},{"id":"69990","name":"STARLINK-38070","type":"PAYLOAD","l1":"1 69990U 26159R   26203.58336806 -.00002429  00000-0 -11940-4 0  9996","l2":"2 69990  97.2850  42.7079 0001425  84.1441 215.0424 15.80819433  3046"},{"id":"69991","name":"STARLINK-38042","type":"PAYLOAD","l1":"1 69991U 26159S   26203.58336806 -.00026363  00000-0 -13724-3 0  9991","l2":"2 69991  97.2848  42.7089 0001350  98.6686 204.7942 15.80826814  3044"},{"id":"69992","name":"STARLINK-38071","type":"PAYLOAD","l1":"1 69992U 26159T   26203.58336806  .00040100  00000-0  20933-3 0  9995","l2":"2 69992  97.2850  42.7113 0001200  89.6325 218.1120 15.80794699  3042"},{"id":"69993","name":"STARLINK-38082","type":"PAYLOAD","l1":"1 69993U 26159U   26203.58336806  .00043644  00000-0  22761-3 0  9993","l2":"2 69993  97.2850  42.7125 0000980  87.8575 224.1572 15.80800793  3048"},{"id":"69994","name":"STARLINK-38090","type":"PAYLOAD","l1":"1 69994U 26159V   26203.58336806  .00079072  00000-0  41051-3 0  9991","l2":"2 69994  97.2851  42.7145 0001202  97.0000 219.2951 15.80779231  3044"},{"id":"69995","name":"STARLINK-38084","type":"PAYLOAD","l1":"1 69995U 26159W   26203.58336806 -.02265526  00000-0 -14371-1 0  9990","l2":"2 69995  97.2849  42.7159 0001392  73.8901 246.0502 15.79551251  3047"},{"id":"69996","name":"STARLINK-38085","type":"PAYLOAD","l1":"1 69996U 26159X   26203.58336806  .00024422  00000-0  12796-3 0  9996","l2":"2 69996  97.2852  42.7183 0001243  87.0264 237.8071 15.80803158  3040"},{"id":"69997","name":"STARLINK-38091","type":"PAYLOAD","l1":"1 69997U 26159Y   26203.58336806  .00014546  00000-0  76555-4 0  9997","l2":"2 69997  97.2849  42.7207 0001279  88.5532 240.5474 15.80816100  3046"},{"id":"69998","name":"STARLINK-38086","type":"PAYLOAD","l1":"1 69998U 26159Z   26203.58336806  .00010663  00000-0  56332-4 0  9995","l2":"2 69998  97.2847  42.7225 0001433  91.6321 241.7421 15.80818502  3041"},{"id":"100000","name":"SARAMAGO","type":"PAYLOAD","l1":"1 A0000U 26067CY  26203.54041155  .00008769  00000-0  40347-3 0  9990","l2":"2 A0000  97.4594 161.6520 0005907 234.4903 125.5782 15.20554028 17074"},{"id":"100001","name":"STARLINK-38128","type":"PAYLOAD","l1":"1 A0001U 26160A   26203.44090433  .00257745  00000-0  14284-2 0  9997","l2":"2 A0001  70.0031   5.1245 0005372 268.5646  91.4939 15.78667026  2538"},{"id":"100002","name":"STARLINK-37711","type":"PAYLOAD","l1":"1 A0002U 26160B   26203.05996476  .00261733  00000-0  13667-2 0  9993","l2":"2 A0002  70.0028   6.2044 0009240 303.8975  56.1346 15.79941147  2473"},{"id":"100003","name":"STARLINK-38123","type":"PAYLOAD","l1":"1 A0003U 26160C   26203.43866739  .01151386  00000-0  50446-2 0  9993","l2":"2 A0003  70.0030   5.1163 0018270 242.9615 116.9723 15.81847297  2539"},{"id":"100004","name":"STARLINK-38107","type":"PAYLOAD","l1":"1 A0004U 26160D   26203.50201807  .00316089  00000-0  17185-2 0  9996","l2":"2 A0004  70.0006   4.9338 0004990 238.9186 121.1525 15.78940770  2541"},{"id":"100005","name":"STARLINK-38122","type":"PAYLOAD","l1":"1 A0005U 26160E   26203.05777534  .00117595  00000-0  61452-3 0  9990","l2":"2 A0005  70.0010   6.1948 0011257 241.6371 118.3696 15.80278677  2471"},{"id":"100006","name":"STARLINK-38117","type":"PAYLOAD","l1":"1 A0006U 26160F   26203.05712745  .00271566  00000-0  13015-2 0  9994","l2":"2 A0006  70.0029   6.1922 0012914 319.7866  40.2379 15.81731320  2472"},{"id":"100007","name":"STARLINK-38054","type":"PAYLOAD","l1":"1 A0007U 26160G   26203.49975910 -.00741861  00000-0 -45494-2 0  9996","l2":"2 A0007  70.0004   4.9256 0005769 286.9959  73.0609 15.78910988  2543"},{"id":"100008","name":"STARLINK-38124","type":"PAYLOAD","l1":"1 A0008U 26160H   26203.49901047 -.00837126  00000-0 -51334-2 0  9997","l2":"2 A0008  70.0035   4.9248 0005774 295.9363  64.1242 15.79153386  2540"},{"id":"100009","name":"STARLINK-38119","type":"PAYLOAD","l1":"1 A0009U 26160J   26203.05502601  .00259565  00000-0  12761-2 0  9997","l2":"2 A0009  70.0025   6.1837 0011589 239.1934 120.8128 15.81232389  2472"},{"id":"100010","name":"STARLINK-38045","type":"PAYLOAD","l1":"1 A0010U 26160K   26203.05435429  .00121117  00000-0  59705-3 0  9993","l2":"2 A0010  70.0033   6.1809 0012551 239.9071 120.0887 15.81517346  2475"}]}